{
    "links": {
        "self": "http://www.neowsapp.com/rest/v1/neo/3631865?api_key=iIulBulltgU6a56xZRHN4H3l9WmuAYTsLGpBGhQ2"
    },
    "id": "3631865",
    "neo_reference_id": "3631865",
    "name": "(2013 EA29)",
    "designation": "2013 EA29",
    "nasa_jpl_url": "http://ssd.jpl.nasa.gov/sbdb.cgi?sstr=3631865",
    "absolute_magnitude_h": 26.5,
    "estimated_diameter": {
        "kilometers": {
            "estimated_diameter_min": 0.0133215567,
            "estimated_diameter_max": 0.0297879063
        },
        "meters": {
            "estimated_diameter_min": 13.3215566698,
            "estimated_diameter_max": 29.7879062798
        },
        "miles": {
            "estimated_diameter_min": 0.008277629,
            "estimated_diameter_max": 0.0185093411
        },
        "feet": {
            "estimated_diameter_min": 43.7058959846,
            "estimated_diameter_max": 97.7293544391
        }
    },
    "is_potentially_hazardous_asteroid": false,
    "close_approach_data": [
        {
            "close_approach_date": "2013-03-14",
            "close_approach_date_full": "2013-Mar-14 16:39",
            "epoch_date_close_approach": 1363279140000,
            "relative_velocity": {
                "kilometers_per_second": "14.5742935735",
                "kilometers_per_hour": "52467.4568644596",
                "miles_per_hour": "32601.2372944749"
            },
            "miss_distance": {
                "astronomical": "0.0090864832",
                "lunar": "3.5346419648",
                "kilometers": "1359318.532510784",
                "miles": "844641.3695614592"
            },
            "orbiting_body": "Earth"
        },
        {
            "close_approach_date": "2016-02-17",
            "close_approach_date_full": "2016-Feb-17 02:34",
            "epoch_date_close_approach": 1455676440000,
            "relative_velocity": {
                "kilometers_per_second": "27.577664466",
                "kilometers_per_hour": "99279.5920776871",
                "miles_per_hour": "61688.4776440495"
            },
            "miss_distance": {
                "astronomical": "0.4438045946",
                "lunar": "172.6399872994",
                "kilometers": "66392222.048373502",
                "miles": "41254213.7975462476"
            },
            "orbiting_body": "Earth"
        }
    ],
    "orbital_data": {
        "orbit_id": "6",
        "orbit_determination_date": "2017-04-06 08:46:31",
        "first_observation_date": "2013-03-05",
        "last_observation_date": "2013-03-14",
        "data_arc_in_days": 9,
        "observations_used": 29,
        "orbit_uncertainty": "8",
        "minimum_orbit_intersection": ".00789749",
        "jupiter_tisserand_invariant": "3.536",
        "epoch_osculation": "2456358.5",
        "eccentricity": ".5967982581262675",
        "semi_major_axis": "2.054733692972559",
        "inclination": "5.506774871568857",
        "ascending_node_longitude": "169.9082050614107",
        "orbital_period": "1075.800496843277",
        "perihelion_distance": ".8284722040931826",
        "perihelion_argument": "61.30356471181753",
        "aphelion_distance": "3.280995181851935",
        "perihelion_time": "2456405.390229563459",
        "mean_anomaly": "344.3089097910089",
        "mean_motion": ".334634535916602",
        "equinox": "J2000",
        "orbit_class": {
            "orbit_class_type": "APO",
            "orbit_class_description": "Near-Earth asteroid orbits which cross the Earth’s orbit similar to that of 1862 Apollo",
            "orbit_class_range": "a (semi-major axis) > 1.0 AU; q (perihelion) < 1.017 AU"
        }
    },
    "is_sentry_object": false
}